{
  "type": "FeatureCollection",
  "features": [
    {
      "type": "Feature",
      "properties": {
        "norad_id": 33939,
        "name": "COSMOS 2251 DEB",
        "group": "cosmos-2251-debris",
        "lat": 53.97957556542152,
        "lon": 113.94125581395208,
        "alt_km": 561.7605307025324,
        "timestamp": "2025-12-07T18:50:17.107959+00:00",
        "meta_object_name": "COSMOS 2251 DEB",
        "meta_object_id": "1993-036EU",
        "meta_epoch": "2025-12-07T07:22:24.138048",
        "meta_mean_motion": 14.99240771,
        "meta_eccentricity": 0.00031029,
        "meta_inclination": 74.0078,
        "meta_ra_of_asc_node": 91.681,
        "meta_arg_of_pericenter": 89.1051,
        "meta_mean_anomaly": 271.0491,
        "meta_ephemeris_type": 0,
        "meta_classification_type": "U",
        "meta_norad_cat_id": 33939,
        "meta_element_set_no": 999,
        "meta_rev_at_epoch": 88671,
        "meta_bstar": 0.0052976395,
        "meta_mean_motion_dot": 0.00065189,
        "meta_mean_motion_ddot": 0,
        "tle_line1": "1 33939U 93036EU  25341.30722382  .00065189  00000+0  52976-2 0  9999",
        "tle_line2": "2 33939  74.0078  91.6810 0003102  89.1051 271.0491 14.99240771886718"
      },
      "geometry": {
        "type": "Point",
        "coordinates": [
          113.94125581395208,
          53.97957556542152
        ]
      }
    },
    {
      "type": "Feature",
      "properties": {
        "norad_id": 33940,
        "name": "COSMOS 2251 DEB",
        "group": "cosmos-2251-debris",
        "lat": -14.968156682696565,
        "lon": -22.68106699225301,
        "alt_km": 695.1200501564354,
        "timestamp": "2025-12-07T18:50:17.107969+00:00",
        "meta_object_name": "COSMOS 2251 DEB",
        "meta_object_id": "1993-036EV",
        "meta_epoch": "2025-12-07T05:35:07.483200",
        "meta_mean_motion": 14.58710461,
        "meta_eccentricity": 0.00115642,
        "meta_inclination": 74.0391,
        "meta_ra_of_asc_node": 153.9815,
        "meta_arg_of_pericenter": 233.4514,
        "meta_mean_anomaly": 303.507,
        "meta_ephemeris_type": 0,
        "meta_classification_type": "U",
        "meta_norad_cat_id": 33940,
        "meta_element_set_no": 999,
        "meta_rev_at_epoch": 88513,
        "meta_bstar": 0.0017056401,
        "meta_mean_motion_dot": 7.946e-05,
        "meta_mean_motion_ddot": 0,
        "tle_line1": "1 33940U 93036EV  25341.23272550  .00007946  00000+0  17056-2 0  9997",
        "tle_line2": "2 33940  74.0391 153.9815 0011564 233.4514 303.5070 14.58710461885136"
      },
      "geometry": {
        "type": "Point",
        "coordinates": [
          -22.68106699225301,
          -14.968156682696565
        ]
      }
    },
    {
      "type": "Feature",
      "properties": {
        "norad_id": 33942,
        "name": "COSMOS 2251 DEB",
        "group": "cosmos-2251-debris",
        "lat": 40.993174361235766,
        "lon": -61.6411790155221,
        "alt_km": 749.8023072747583,
        "timestamp": "2025-12-07T18:50:17.107979+00:00",
        "meta_object_name": "COSMOS 2251 DEB",
        "meta_object_id": "1993-036EX",
        "meta_epoch": "2025-12-07T03:39:57.504960",
        "meta_mean_motion": 14.37975138,
        "meta_eccentricity": 0.00200595,
        "meta_inclination": 74.0363,
        "meta_ra_of_asc_node": 285.1179,
        "meta_arg_of_pericenter": 9.577,
        "meta_mean_anomaly": 2.1439,
        "meta_ephemeris_type": 0,
        "meta_classification_type": "U",
        "meta_norad_cat_id": 33942,
        "meta_element_set_no": 999,
        "meta_rev_at_epoch": 88054,
        "meta_bstar": 0.00043107519,
        "meta_mean_motion_dot": 1.28e-05,
        "meta_mean_motion_ddot": 0,
        "tle_line1": "1 33942U 93036EX  25341.15274890  .00001280  00000+0  43108-3 0  9992",
        "tle_line2": "2 33942  74.0363 285.1179 0020059   9.5770   2.1439 14.37975138880545"
      },
      "geometry": {
        "type": "Point",
        "coordinates": [
          -61.6411790155221,
          40.993174361235766
        ]
      }
    },
    {
      "type": "Feature",
      "properties": {
        "norad_id": 33944,
        "name": "COSMOS 2251 DEB",
        "group": "cosmos-2251-debris",
        "lat": -66.1202884808715,
        "lon": -82.2285503688336,
        "alt_km": 826.1466272986172,
        "timestamp": "2025-12-07T18:50:17.107989+00:00",
        "meta_object_name": "COSMOS 2251 DEB",
        "meta_object_id": "1993-036EZ",
        "meta_epoch": "2025-12-07T01:05:28.303872",
        "meta_mean_motion": 14.37324143,
        "meta_eccentricity": 0.01119773,
        "meta_inclination": 74.04,
        "meta_ra_of_asc_node": 319.4027,
        "meta_arg_of_pericenter": 60.5064,
        "meta_mean_anomaly": 3.8314,
        "meta_ephemeris_type": 0,
        "meta_classification_type": "U",
        "meta_norad_cat_id": 33944,
        "meta_element_set_no": 999,
        "meta_rev_at_epoch": 87946,
        "meta_bstar": 0.00054525126,
        "meta_mean_motion_dot": 1.722e-05,
        "meta_mean_motion_ddot": 0,
        "tle_line1": "1 33944U 93036EZ  25341.04546648  .00001722  00000+0  54525-3 0  9991",
        "tle_line2": "2 33944  74.0400 319.4027 0111977  60.5064   3.8314 14.37324143879468"
      },
      "geometry": {
        "type": "Point",
        "coordinates": [
          -82.2285503688336,
          -66.1202884808715
        ]
      }
    },
    {
      "type": "Feature",
      "properties": {
        "norad_id": 33945,
        "name": "COSMOS 2251 DEB",
        "group": "cosmos-2251-debris",
        "lat": 46.58870332223732,
        "lon": 117.72633562245777,
        "alt_km": 771.290893269319,
        "timestamp": "2025-12-07T18:50:17.107999+00:00",
        "meta_object_name": "COSMOS 2251 DEB",
        "meta_object_id": "1993-036FA",
        "meta_epoch": "2025-12-07T06:31:00.984288",
        "meta_mean_motion": 14.34593932,
        "meta_eccentricity": 0.00216842,
        "meta_inclination": 74.0294,
        "meta_ra_of_asc_node": 316.2873,
        "meta_arg_of_pericenter": 44.2859,
        "meta_mean_anomaly": 316.0023,
        "meta_ephemeris_type": 0,
        "meta_classification_type": "U",
        "meta_norad_cat_id": 33945,
        "meta_element_set_no": 999,
        "meta_rev_at_epoch": 87937,
        "meta_bstar": 0.00025861861,
        "meta_mean_motion_dot": 7.06e-06,
        "meta_mean_motion_ddot": 0,
        "tle_line1": "1 33945U 93036FA  25341.27153917  .00000706  00000+0  25862-3 0  9993",
        "tle_line2": "2 33945  74.0294 316.2873 0021684  44.2859 316.0023 14.34593932879377"
      },
      "geometry": {
        "type": "Point",
        "coordinates": [
          117.72633562245777,
          46.58870332223732
        ]
      }
    },
    {
      "type": "Feature",
      "properties": {
        "norad_id": 33948,
        "name": "COSMOS 2251 DEB",
        "group": "cosmos-2251-debris",
        "lat": -37.31055286853126,
        "lon": -58.374917417914524,
        "alt_km": 773.611907549549,
        "timestamp": "2025-12-07T18:50:17.108009+00:00",
        "meta_object_name": "COSMOS 2251 DEB",
        "meta_object_id": "1993-036FD",
        "meta_epoch": "2025-12-07T07:18:44.276832",
        "meta_mean_motion": 14.35619193,
        "meta_eccentricity": 0.00224952,
        "meta_inclination": 74.0353,
        "meta_ra_of_asc_node": 315.1067,
        "meta_arg_of_pericenter": 32.4758,
        "meta_mean_anomaly": 327.7773,
        "meta_ephemeris_type": 0,
        "meta_classification_type": "U",
        "meta_norad_cat_id": 33948,
        "meta_element_set_no": 999,
        "meta_rev_at_epoch": 87945,
        "meta_bstar": 0.00036586557,
        "meta_mean_motion_dot": 1.032e-05,
        "meta_mean_motion_ddot": 0,
        "tle_line1": "1 33948U 93036FD  25341.30467913  .00001032  00000+0  36587-3 0  9993",
        "tle_line2": "2 33948  74.0353 315.1067 0022495  32.4758 327.7773 14.35619193879456"
      },
      "geometry": {
        "type": "Point",
        "coordinates": [
          -58.374917417914524,
          -37.31055286853126
        ]
      }
    },
    {
      "type": "Feature",
      "properties": {
        "norad_id": 33971,
        "name": "COSMOS 2251 DEB",
        "group": "cosmos-2251-debris",
        "lat": -42.01464101433538,
        "lon": -112.06499563143485,
        "alt_km": 756.9920627324209,
        "timestamp": "2025-12-07T18:50:17.108020+00:00",
        "meta_object_name": "COSMOS 2251 DEB",
        "meta_object_id": "1993-036FE",
        "meta_epoch": "2025-12-07T06:27:05.710176",
        "meta_mean_motion": 14.39709689,
        "meta_eccentricity": 0.00182862,
        "meta_inclination": 74.025,
        "meta_ra_of_asc_node": 263.8435,
        "meta_arg_of_pericenter": 5.3034,
        "meta_mean_anomaly": 156.9477,
        "meta_ephemeris_type": 0,
        "meta_classification_type": "U",
        "meta_norad_cat_id": 33971,
        "meta_element_set_no": 999,
        "meta_rev_at_epoch": 88060,
        "meta_bstar": 0.00057241537,
        "meta_mean_motion_dot": 1.77e-05,
        "meta_mean_motion_ddot": 0,
        "tle_line1": "1 33971U 93036FE  25341.26881609  .00001770  00000+0  57242-3 0  9996",
        "tle_line2": "2 33971  74.0250 263.8435 0018286   5.3034 156.9477 14.39709689880601"
      },
      "geometry": {
        "type": "Point",
        "coordinates": [
          -112.06499563143485,
          -42.01464101433538
        ]
      }
    }
  ]
}